*******************************************************************************
JPL/HORIZONS               3451 Mentor (1984 HA1)          2023-Sep-04 11:23:40
Rec #:    3451 (+COV) Soln.date: 2023-Aug-23_10:29:39   # obs: 4231 (1983-2023)
 
IAU76/J2000 helio. ecliptic osc. elements (au, days, deg., period=Julian yrs):
 
  EPOCH=  2457807.5 ! 2017-Feb-23.00 (TDB)         Residual RMS= .23485
   EC= .06954085738179744  QR= 4.776215951001675   TP= 2459670.9229788193
   OM= 179.6572908229812   W=  132.4318511524476   IN= 24.6621911058549
   A= 5.133181815551799    MA= 202.0805764812508   ADIST= 5.490147680101923
   PER= 11.63023           N= .084746955           ANGMOM= .038879629
   DAN= 5.35984            DDN= 4.87942            L= 314.8258117
   B= 17.9373531           MOID= 3.80661988        TP= 2022-Apr-01.4229788193
 
Asteroid physical parameters (km, seconds, rotational period in hours):
   GM= n.a.                RAD= 63.144             ROTPER= 7.702
   H= 8.49                 G= .150                 B-V= n.a.
                           ALBEDO= .044            STYP= X

ASTEROID comments: 
1: soln ref.= JPL#98, OCC=0
2: source=ORB
*******************************************************************************


*******************************************************************************
Ephemeris / API_USER Mon Sep  4 11:23:40 2023 Pasadena, USA      / Horizons
*******************************************************************************
Target body name: 3451 Mentor (1984 HA1)          {source: JPL#98}
Center body name: Solar System Barycenter (0)     {source: DE441}
Center-site name: BODY CENTER
*******************************************************************************
Start time      : A.D. 2023-Aug-12 00:00:00.0000 TDB
Stop  time      : A.D. 2023-Aug-13 00:00:00.0000 TDB
Step-size       : 2880 minutes
*******************************************************************************
Center geodetic : 0.0, 0.0, 0.0                   {E-lon(deg),Lat(deg),Alt(km)}
Center cylindric: 0.0, 0.0, 0.0                   {E-lon(deg),Dxy(km),Dz(km)}
Center radii    : (undefined)
Small perturbers: Yes                             {source: SB441-N16}
Output units    : KM-S
Calendar mode   : Mixed Julian/Gregorian
Output type     : GEOMETRIC cartesian states
Output format   : 2 (position and velocity)
Reference frame : Ecliptic of J2000.0
*******************************************************************************
Initial IAU76/J2000 heliocentric ecliptic osculating elements (au, days, deg.):
  EPOCH=  2457807.5 ! 2017-Feb-23.00 (TDB)         Residual RMS= .23485        
   EC= .06954085738179744  QR= 4.776215951001675   TP= 2459670.9229788193      
   OM= 179.6572908229812   W=  132.4318511524476   IN= 24.6621911058549        
  Equivalent ICRF heliocentric cartesian coordinates (au, au/d):
   X=-4.801446746046397E+00  Y= 2.614199412756851E+00  Z=-4.380087979719487E-02
  VX=-3.247178202455099E-03 VY=-6.327652481649274E-03 VZ= 1.431389265817044E-04
Asteroid physical parameters (km, seconds, rotational period in hours):        
   GM= n.a.                RAD= 63.144             ROTPER= 7.702               
   H= 8.49                 G= .150                 B-V= n.a.                   
                           ALBEDO= .044            STYP= X                     
*******************************************************************************
JDTDB
   X     Y     Z
   VX    VY    VZ
*******************************************************************************
$$SOE
2460168.500000000 = A.D. 2023-Aug-12 00:00:00.0000 TDB 
 X = 7.321557553644201E+08 Y =-9.042559458563176E+05 Z =-2.256167583867564E+06
 VX= 7.381815296367292E-01 VY= 1.251757408422155E+01 VZ=-5.747530461151872E+00
$$EOE
*******************************************************************************
 
TIME

  Barycentric Dynamical Time ("TDB" or T_eph) output was requested. This
continuous coordinate time is equivalent to the relativistic proper time
of a clock at rest in a reference frame co-moving with the solar system
barycenter but outside the system's gravity well. It is the independent
variable in the solar system relativistic equations of motion.

  TDB runs at a uniform rate of one SI second per second and is independent
of irregularities in Earth's rotation.
 
CALENDAR SYSTEM

  Mixed calendar mode was active such that calendar dates after AD 1582-Oct-15
(if any) are in the modern Gregorian system. Dates prior to 1582-Oct-5 (if any)
are in the Julian calendar system, which is automatically extended for dates
prior to its adoption on 45-Jan-1 BC.  The Julian calendar is useful for
matching historical dates. The Gregorian calendar more accurately corresponds
to the Earth's orbital motion and seasons. A "Gregorian-only" calendar mode is
available if such physical events are the primary interest.

REFERENCE FRAME AND COORDINATES

  Ecliptic at the standard reference epoch

    Reference epoch: J2000.0
    X-Y plane: adopted Earth orbital plane at the reference epoch
               Note: IAU76 obliquity of 84381.448 arcseconds wrt ICRF X-Y plane
    X-axis   : ICRF
    Z-axis   : perpendicular to the X-Y plane in the directional (+ or -) sense
               of Earth's north pole at the reference epoch.

  Symbol meaning:

    JDTDB    Julian Day Number, Barycentric Dynamical Time
      X      X-component of position vector (km)
      Y      Y-component of position vector (km)
      Z      Z-component of position vector (km)
      VX     X-component of velocity vector (km/sec)                           
      VY     Y-component of velocity vector (km/sec)                           
      VZ     Z-component of velocity vector (km/sec)                           

ABERRATIONS AND CORRECTIONS

 Geometric state vectors have NO corrections or aberrations applied.

Computations by ...

    Solar System Dynamics Group, Horizons On-Line Ephemeris System
    4800 Oak Grove Drive, Jet Propulsion Laboratory
    Pasadena, CA  91109   USA

    General site: https://ssd.jpl.nasa.gov/
    Mailing list: https://ssd.jpl.nasa.gov/email_list.html
    System news : https://ssd.jpl.nasa.gov/horizons/news.html
    User Guide  : https://ssd.jpl.nasa.gov/horizons/manual.html
    Connect     : browser        https://ssd.jpl.nasa.gov/horizons/app.html#/x
                  API            https://ssd-api.jpl.nasa.gov/doc/horizons.html
                  command-line   telnet ssd.jpl.nasa.gov 6775
                  e-mail/batch   https://ssd.jpl.nasa.gov/ftp/ssd/hrzn_batch.txt
                  scripts        https://ssd.jpl.nasa.gov/ftp/ssd/SCRIPTS
    Author      : Jon.D.Giorgini@jpl.nasa.gov
*******************************************************************************
